CCSDS_OMM_VERS = 2.0
CREATION_DATE  = 
ORIGINATOR     = 

OBJECT_NAME    = SL-14 R/B
OBJECT_ID      = 1986-046B
CENTER_NAME    = EARTH
REF_FRAME      = TEME
TIME_SYSTEM    = UTC
MEAN_ELEMENT_THEORY = SGP/SGP4

EPOCH          = 2026-03-20T05:56:09.212640
MEAN_MOTION    = 14.85600014
ECCENTRICITY   = .00227853
INCLINATION    = 82.4790
RA_OF_ASC_NODE = 70.2028
ARG_OF_PERICENTER = 189.3162
MEAN_ANOMALY   = 170.7635

EPHEMERIS_TYPE = 0
CLASSIFICATION_TYPE = U
NORAD_CAT_ID   = 16792
ELEMENT_SET_NO = 999
REV_AT_EPOCH   = 12797
BSTAR          = .44056397E-4
MEAN_MOTION_DOT = .407E-5
MEAN_MOTION_DDOT = 0

CCSDS_OMM_VERS = 2.0
CREATION_DATE  = 
ORIGINATOR     = 

OBJECT_NAME    = SL-14 R/B
OBJECT_ID      = 1986-055B
CENTER_NAME    = EARTH
REF_FRAME      = TEME
TIME_SYSTEM    = UTC
MEAN_ELEMENT_THEORY = SGP/SGP4

EPOCH          = 2026-03-20T04:14:30.629760
MEAN_MOTION    = 14.85651414
ECCENTRICITY   = .00175016
INCLINATION    = 82.5181
RA_OF_ASC_NODE = 116.8156
ARG_OF_PERICENTER = 299.8809
MEAN_ANOMALY   = 129.8741

EPHEMERIS_TYPE = 0
CLASSIFICATION_TYPE = U
NORAD_CAT_ID   = 16882
ELEMENT_SET_NO = 999
REV_AT_EPOCH   = 12092
BSTAR          = .40009622E-4
MEAN_MOTION_DOT = .371E-5
MEAN_MOTION_DDOT = 0

CCSDS_OMM_VERS = 2.0
CREATION_DATE  = 
ORIGINATOR     = 

OBJECT_NAME    = AJISAI (EGS)
OBJECT_ID      = 1986-061A
CENTER_NAME    = EARTH
REF_FRAME      = TEME
TIME_SYSTEM    = UTC
MEAN_ELEMENT_THEORY = SGP/SGP4

EPOCH          = 2026-03-20T06:20:37.999680
MEAN_MOTION    = 12.44515657
ECCENTRICITY   = .00113085
INCLINATION    = 50.0099
RA_OF_ASC_NODE = 60.8294
ARG_OF_PERICENTER = 314.2501
MEAN_ANOMALY   = 243.4157

EPHEMERIS_TYPE = 0
CLASSIFICATION_TYPE = U
NORAD_CAT_ID   = 16908
ELEMENT_SET_NO = 999
REV_AT_EPOCH   = 46931
BSTAR          = -.98433711E-4
MEAN_MOTION_DOT = -.111E-5
MEAN_MOTION_DDOT = 0

CCSDS_OMM_VERS = 2.0
CREATION_DATE  = 
ORIGINATOR     = 

OBJECT_NAME    = SL-14 R/B
OBJECT_ID      = 1987-024B
CENTER_NAME    = EARTH
REF_FRAME      = TEME
TIME_SYSTEM    = UTC
MEAN_ELEMENT_THEORY = SGP/SGP4

EPOCH          = 2026-03-20T06:38:42.244512
MEAN_MOTION    = 14.86141575
ECCENTRICITY   = .00171226
INCLINATION    = 82.5245
RA_OF_ASC_NODE = 82.8096
ARG_OF_PERICENTER = 222.0659
MEAN_ANOMALY   = 137.9244

EPHEMERIS_TYPE = 0
CLASSIFICATION_TYPE = U
NORAD_CAT_ID   = 17567
ELEMENT_SET_NO = 999
REV_AT_EPOCH   = 8970
BSTAR          = .43575073E-4
MEAN_MOTION_DOT = .407E-5
MEAN_MOTION_DDOT = 0

CCSDS_OMM_VERS = 2.0
CREATION_DATE  = 
ORIGINATOR     = 

OBJECT_NAME    = COSMOS 1833
OBJECT_ID      = 1987-027A
CENTER_NAME    = EARTH
REF_FRAME      = TEME
TIME_SYSTEM    = UTC
MEAN_ELEMENT_THEORY = SGP/SGP4

EPOCH          = 2026-03-20T01:17:45.272544
MEAN_MOTION    = 14.13051451
ECCENTRICITY   = .00237311
INCLINATION    = 70.9196
RA_OF_ASC_NODE = 304.2359
ARG_OF_PERICENTER = 199.6118
MEAN_ANOMALY   = 160.4093

EPHEMERIS_TYPE = 0
CLASSIFICATION_TYPE = U
NORAD_CAT_ID   = 17589
ELEMENT_SET_NO = 999
REV_AT_EPOCH   = 1178
BSTAR          = -.10094475E-3
MEAN_MOTION_DOT = -.237E-5
MEAN_MOTION_DDOT = 0

CCSDS_OMM_VERS = 2.0
CREATION_DATE  = 
ORIGINATOR     = 

OBJECT_NAME    = SL-16 R/B
OBJECT_ID      = 1987-027B
CENTER_NAME    = EARTH
REF_FRAME      = TEME
TIME_SYSTEM    = UTC
MEAN_ELEMENT_THEORY = SGP/SGP4

EPOCH          = 2026-03-19T22:14:55.283136
MEAN_MOTION    = 14.17166688
ECCENTRICITY   = .0003047
INCLINATION    = 70.9993
RA_OF_ASC_NODE = 254.9201
ARG_OF_PERICENTER = 118.9735
MEAN_ANOMALY   = 241.1694

EPHEMERIS_TYPE = 0
CLASSIFICATION_TYPE = U
NORAD_CAT_ID   = 17590
ELEMENT_SET_NO = 999
REV_AT_EPOCH   = 1679
BSTAR          = -.29695E-4
MEAN_MOTION_DOT = -.108E-5
MEAN_MOTION_DDOT = 0

CCSDS_OMM_VERS = 2.0
CREATION_DATE  = 
ORIGINATOR     = 

OBJECT_NAME    = SL-14 R/B
OBJECT_ID      = 1987-038B
CENTER_NAME    = EARTH
REF_FRAME      = TEME
TIME_SYSTEM    = UTC
MEAN_ELEMENT_THEORY = SGP/SGP4

EPOCH          = 2026-03-20T01:48:17.254944
MEAN_MOTION    = 14.85378100
ECCENTRICITY   = .0020439
INCLINATION    = 82.4985
RA_OF_ASC_NODE = 287.0222
ARG_OF_PERICENTER = 127.6163
MEAN_ANOMALY   = 232.6913

EPHEMERIS_TYPE = 0
CLASSIFICATION_TYPE = U
NORAD_CAT_ID   = 17912
ELEMENT_SET_NO = 999
REV_AT_EPOCH   = 8077
BSTAR          = .42001509E-4
MEAN_MOTION_DOT = .387E-5
MEAN_MOTION_DDOT = 0

CCSDS_OMM_VERS = 2.0
CREATION_DATE  = 
ORIGINATOR     = 

OBJECT_NAME    = COSMOS 1844
OBJECT_ID      = 1987-041A
CENTER_NAME    = EARTH
REF_FRAME      = TEME
TIME_SYSTEM    = UTC
MEAN_ELEMENT_THEORY = SGP/SGP4

EPOCH          = 2026-03-20T05:16:12.556128
MEAN_MOTION    = 14.14551454
ECCENTRICITY   = .0030555
INCLINATION    = 70.9009
RA_OF_ASC_NODE = 11.9656
ARG_OF_PERICENTER = 2.5053
MEAN_ANOMALY   = 357.6215

EPHEMERIS_TYPE = 0
CLASSIFICATION_TYPE = U
NORAD_CAT_ID   = 17973
ELEMENT_SET_NO = 999
REV_AT_EPOCH   = 507
BSTAR          = .66117095E-4
MEAN_MOTION_DOT = .79E-6
MEAN_MOTION_DDOT = 0

CCSDS_OMM_VERS = 2.0
CREATION_DATE  = 
ORIGINATOR     = 

OBJECT_NAME    = SL-14 R/B
OBJECT_ID      = 1987-055B
CENTER_NAME    = EARTH
REF_FRAME      = TEME
TIME_SYSTEM    = UTC
MEAN_ELEMENT_THEORY = SGP/SGP4

EPOCH          = 2026-03-20T04:26:20.375520
MEAN_MOTION    = 14.85639964
ECCENTRICITY   = .00201946
INCLINATION    = 82.5024
RA_OF_ASC_NODE = 339.1423
ARG_OF_PERICENTER = 343.2280
MEAN_ANOMALY   = 16.8265

EPHEMERIS_TYPE = 0
CLASSIFICATION_TYPE = U
NORAD_CAT_ID   = 18153
ELEMENT_SET_NO = 999
REV_AT_EPOCH   = 7149
BSTAR          = .43497719E-4
MEAN_MOTION_DOT = .402E-5
MEAN_MOTION_DDOT = 0

CCSDS_OMM_VERS = 2.0
CREATION_DATE  = 
ORIGINATOR     = 

OBJECT_NAME    = COSMOS 1867
OBJECT_ID      = 1987-060A
CENTER_NAME    = EARTH
REF_FRAME      = TEME
TIME_SYSTEM    = UTC
MEAN_ELEMENT_THEORY = SGP/SGP4

EPOCH          = 2026-03-19T23:46:07.042656
MEAN_MOTION    = 14.31504573
ECCENTRICITY   = .00146494
INCLINATION    = 65.0095
RA_OF_ASC_NODE = 277.8575
ARG_OF_PERICENTER = 279.2806
MEAN_ANOMALY   = 80.6622

EPHEMERIS_TYPE = 0
CLASSIFICATION_TYPE = U
NORAD_CAT_ID   = 18187
ELEMENT_SET_NO = 999
REV_AT_EPOCH   = 2141
BSTAR          = .23678246E-4
MEAN_MOTION_DOT = -.37E-6
MEAN_MOTION_DDOT = 0

CCSDS_OMM_VERS = 2.0
CREATION_DATE  = 
ORIGINATOR     = 

OBJECT_NAME    = SL-14 R/B
OBJECT_ID      = 1988-001B
CENTER_NAME    = EARTH
REF_FRAME      = TEME
TIME_SYSTEM    = UTC
MEAN_ELEMENT_THEORY = SGP/SGP4

EPOCH          = 2026-03-20T05:57:40.212576
MEAN_MOTION    = 14.85539411
ECCENTRICITY   = .00175782
INCLINATION    = 82.5160
RA_OF_ASC_NODE = 185.4322
ARG_OF_PERICENTER = 198.9590
MEAN_ANOMALY   = 161.0974

EPHEMERIS_TYPE = 0
CLASSIFICATION_TYPE = U
NORAD_CAT_ID   = 18749
ELEMENT_SET_NO = 999
REV_AT_EPOCH   = 4359
BSTAR          = .50028873E-4
MEAN_MOTION_DOT = .457E-5
MEAN_MOTION_DDOT = 0

CCSDS_OMM_VERS = 2.0
CREATION_DATE  = 
ORIGINATOR     = 

OBJECT_NAME    = COSMOS 1933
OBJECT_ID      = 1988-020A
CENTER_NAME    = EARTH
REF_FRAME      = TEME
TIME_SYSTEM    = UTC
MEAN_ELEMENT_THEORY = SGP/SGP4

EPOCH          = 2026-03-19T22:35:26.681856
MEAN_MOTION    = 15.18074846
ECCENTRICITY   = .0004693
INCLINATION    = 82.5105
RA_OF_ASC_NODE = 240.7660
ARG_OF_PERICENTER = 148.8684
MEAN_ANOMALY   = 211.2829

EPHEMERIS_TYPE = 0
CLASSIFICATION_TYPE = U
NORAD_CAT_ID   = 18958
ELEMENT_SET_NO = 999
REV_AT_EPOCH   = 5178
BSTAR          = .19269E-3
MEAN_MOTION_DOT = .3956E-4
MEAN_MOTION_DDOT = 0

